{
    "links": {
        "self": "http://www.neowsapp.com/rest/v1/neo/3753134?api_key=iIulBulltgU6a56xZRHN4H3l9WmuAYTsLGpBGhQ2"
    },
    "id": "3753134",
    "neo_reference_id": "3753134",
    "name": "(2016 JV24)",
    "designation": "2016 JV24",
    "nasa_jpl_url": "http://ssd.jpl.nasa.gov/sbdb.cgi?sstr=3753134",
    "absolute_magnitude_h": 23.8,
    "estimated_diameter": {
        "kilometers": {
            "estimated_diameter_min": 0.046190746,
            "estimated_diameter_max": 0.1032856481
        },
        "meters": {
            "estimated_diameter_min": 46.1907460282,
            "estimated_diameter_max": 103.2856480504
        },
        "miles": {
            "estimated_diameter_min": 0.0287015901,
            "estimated_diameter_max": 0.0641787064
        },
        "feet": {
            "estimated_diameter_min": 151.544447199,
            "estimated_diameter_max": 338.8636855496
        }
    },
    "is_potentially_hazardous_asteroid": false,
    "close_approach_data": [
        {
            "close_approach_date": "2014-11-21",
            "close_approach_date_full": "2014-Nov-21 07:09",
            "epoch_date_close_approach": 1416553740000,
            "relative_velocity": {
                "kilometers_per_second": "31.0870159849",
                "kilometers_per_hour": "111913.2575454647",
                "miles_per_hour": "69538.5460565139"
            },
            "miss_distance": {
                "astronomical": "0.4469312466",
                "lunar": "173.8562549274",
                "kilometers": "66859962.527804742",
                "miles": "41544854.2542877596"
            },
            "orbiting_body": "Earth"
        },
        {
            "close_approach_date": "2016-05-16",
            "close_approach_date_full": "2016-May-16 03:02",
            "epoch_date_close_approach": 1463367720000,
            "relative_velocity": {
                "kilometers_per_second": "19.9182155008",
                "kilometers_per_hour": "71705.5758030179",
                "miles_per_hour": "44555.0562538252"
            },
            "miss_distance": {
                "astronomical": "0.1105182686",
                "lunar": "42.9916064854",
                "kilometers": "16533297.578647882",
                "miles": "10273314.7354374916"
            },
            "orbiting_body": "Earth"
        }
    ],
    "orbital_data": {
        "orbit_id": "4",
        "orbit_determination_date": "2017-04-06 08:25:57",
        "first_observation_date": "2016-05-09",
        "last_observation_date": "2016-05-16",
        "data_arc_in_days": 7,
        "observations_used": 57,
        "orbit_uncertainty": "9",
        "minimum_orbit_intersection": ".0866481",
        "jupiter_tisserand_invariant": "4.342",
        "epoch_osculation": "2457519.5",
        "eccentricity": ".4773817219872826",
        "semi_major_axis": "1.471638153527201",
        "inclination": "30.43831136831513",
        "ascending_node_longitude": "227.4999432629313",
        "orbital_period": "652.0786560413895",
        "perihelion_distance": ".7691049976542008",
        "perihelion_argument": "92.61753903650833",
        "aphelion_distance": "2.174171309400202",
        "perihelion_time": "2457586.826752636092",
        "mean_anomaly": "322.8302034970231",
        "mean_motion": ".552080637304512",
        "equinox": "J2000",
        "orbit_class": {
            "orbit_class_type": "APO",
            "orbit_class_description": "Near-Earth asteroid orbits which cross the Earth’s orbit similar to that of 1862 Apollo",
            "orbit_class_range": "a (semi-major axis) > 1.0 AU; q (perihelion) < 1.017 AU"
        }
    },
    "is_sentry_object": false
}